[{"OBJECT_NAME":"STARLINK-33756","OBJECT_ID":"2025-069AB","EPOCH":"2026-03-09T12:12:37.083456","MEAN_MOTION":15.30184322,"ECCENTRICITY":0.00011756,"INCLINATION":53.1579,"RA_OF_ASC_NODE":143.5376,"ARG_OF_PERICENTER":70.0598,"MEAN_ANOMALY":290.053,"EPHEMERIS_TYPE":0,"CLASSIFICATION_TYPE":"U","NORAD_CAT_ID":63458,"ELEMENT_SET_NO":999,"REV_AT_EPOCH":5337,"BSTAR":0.00091304377,"MEAN_MOTION_DOT":0.00026767,"MEAN_MOTION_DDOT":0},{"OBJECT_NAME":"COSMOS 249 DEB","OBJECT_ID":"1968-091AB","EPOCH":"2026-03-09T20:26:03.278112","MEAN_MOTION":13.65672942,"ECCENTRICITY":0.07422962,"INCLINATION":62.2701,"RA_OF_ASC_NODE":70.4053,"ARG_OF_PERICENTER":111.2229,"MEAN_ANOMALY":256.9701,"EPHEMERIS_TYPE":0,"CLASSIFICATION_TYPE":"U","NORAD_CAT_ID":3609,"ELEMENT_SET_NO":999,"REV_AT_EPOCH":69132,"BSTAR":0.00039134287,"MEAN_MOTION_DOT":2.2e-5,"MEAN_MOTION_DDOT":0}]
